[{"OBJECT_NAME":"HULIANWANG DIGUI-17","OBJECT_ID":"2025-030G","EPOCH":"2026-03-07T00:23:29.812128","MEAN_MOTION":13.29338283,"ECCENTRICITY":7.54e-5,"INCLINATION":50.0046,"RA_OF_ASC_NODE":242.0144,"ARG_OF_PERICENTER":162.9435,"MEAN_ANOMALY":197.1463,"EPHEMERIS_TYPE":0,"CLASSIFICATION_TYPE":"U","NORAD_CAT_ID":62977,"ELEMENT_SET_NO":999,"REV_AT_EPOCH":5227,"BSTAR":7.2233e-5,"MEAN_MOTION_DOT":-9.1e-7,"MEAN_MOTION_DDOT":0},{"OBJECT_NAME":"HULIANWANG DIGUI-18","OBJECT_ID":"2025-030H","EPOCH":"2026-03-07T03:47:57.254784","MEAN_MOTION":13.29338372,"ECCENTRICITY":7.82e-5,"INCLINATION":50.0051,"RA_OF_ASC_NODE":241.4419,"ARG_OF_PERICENTER":164.6554,"MEAN_ANOMALY":195.4342,"EPHEMERIS_TYPE":0,"CLASSIFICATION_TYPE":"U","NORAD_CAT_ID":62978,"ELEMENT_SET_NO":999,"REV_AT_EPOCH":5229,"BSTAR":7.4104e-5,"MEAN_MOTION_DOT":-9.0e-7,"MEAN_MOTION_DDOT":0},{"OBJECT_NAME":"HULIANWANG DIGUI-19","OBJECT_ID":"2025-030J","EPOCH":"2026-03-07T00:59:15.403200","MEAN_MOTION":13.29341511,"ECCENTRICITY":8.11e-5,"INCLINATION":50.0036,"RA_OF_ASC_NODE":242.1096,"ARG_OF_PERICENTER":158.3462,"MEAN_ANOMALY":201.7445,"EPHEMERIS_TYPE":0,"CLASSIFICATION_TYPE":"U","NORAD_CAT_ID":62979,"ELEMENT_SET_NO":999,"REV_AT_EPOCH":5227,"BSTAR":5.4753e-5,"MEAN_MOTION_DOT":-9.9e-7,"MEAN_MOTION_DDOT":0},{"OBJECT_NAME":"HULIANWANG DIGUI-20","OBJECT_ID":"2025-086A","EPOCH":"2026-03-07T04:27:30.491712","MEAN_MOTION":13.24420324,"ECCENTRICITY":0.0001776,"INCLINATION":86.5125,"RA_OF_ASC_NODE":347.4809,"ARG_OF_PERICENTER":91.5794,"MEAN_ANOMALY":268.5543,"EPHEMERIS_TYPE":0,"CLASSIFICATION_TYPE":"U","NORAD_CAT_ID":63687,"ELEMENT_SET_NO":999,"REV_AT_EPOCH":4137,"BSTAR":0.00017515,"MEAN_MOTION_DOT":9.0e-7,"MEAN_MOTION_DDOT":0},{"OBJECT_NAME":"HULIANWANG DIGUI-21","OBJECT_ID":"2025-086B","EPOCH":"2026-03-07T02:49:30.307296","MEAN_MOTION":13.24421902,"ECCENTRICITY":0.000167,"INCLINATION":86.5153,"RA_OF_ASC_NODE":347.5335,"ARG_OF_PERICENTER":94.6466,"MEAN_ANOMALY":265.4858,"EPHEMERIS_TYPE":0,"CLASSIFICATION_TYPE":"U","NORAD_CAT_ID":63688,"ELEMENT_SET_NO":999,"REV_AT_EPOCH":4135,"BSTAR":0.00015701,"MEAN_MOTION_DOT":8.2e-7,"MEAN_MOTION_DDOT":0},{"OBJECT_NAME":"HULIANWANG DIGUI-22","OBJECT_ID":"2025-086C","EPOCH":"2026-03-07T03:00:23.865408","MEAN_MOTION":13.24421652,"ECCENTRICITY":0.0001841,"INCLINATION":86.5118,"RA_OF_ASC_NODE":347.4335,"ARG_OF_PERICENTER":91.5843,"MEAN_ANOMALY":268.5502,"EPHEMERIS_TYPE":0,"CLASSIFICATION_TYPE":"U","NORAD_CAT_ID":63689,"ELEMENT_SET_NO":999,"REV_AT_EPOCH":4135,"BSTAR":0.00013094,"MEAN_MOTION_DOT":7.1e-7,"MEAN_MOTION_DDOT":0},{"OBJECT_NAME":"HULIANWANG DIGUI-23","OBJECT_ID":"2025-086D","EPOCH":"2026-03-07T03:22:04.759968","MEAN_MOTION":13.24422446,"ECCENTRICITY":0.0001764,"INCLINATION":86.516,"RA_OF_ASC_NODE":347.5657,"ARG_OF_PERICENTER":87.9854,"MEAN_ANOMALY":272.1482,"EPHEMERIS_TYPE":0,"CLASSIFICATION_TYPE":"U","NORAD_CAT_ID":63690,"ELEMENT_SET_NO":999,"REV_AT_EPOCH":4135,"BSTAR":9.7167e-5,"MEAN_MOTION_DOT":5.6e-7,"MEAN_MOTION_DDOT":0},{"OBJECT_NAME":"HULIANWANG DIGUI-24","OBJECT_ID":"2025-086E","EPOCH":"2026-03-07T03:33:02.678688","MEAN_MOTION":13.24420566,"ECCENTRICITY":0.0001812,"INCLINATION":86.5167,"RA_OF_ASC_NODE":347.5899,"ARG_OF_PERICENTER":92.3245,"MEAN_ANOMALY":267.8096,"EPHEMERIS_TYPE":0,"CLASSIFICATION_TYPE":"U","NORAD_CAT_ID":63691,"ELEMENT_SET_NO":999,"REV_AT_EPOCH":4135,"BSTAR":9.7044e-5,"MEAN_MOTION_DOT":5.6e-7,"MEAN_MOTION_DDOT":0},{"OBJECT_NAME":"HULIANWANG DIGUI-25","OBJECT_ID":"2025-086F","EPOCH":"2026-03-07T03:43:53.259456","MEAN_MOTION":13.24421974,"ECCENTRICITY":0.0001704,"INCLINATION":86.5105,"RA_OF_ASC_NODE":347.4082,"ARG_OF_PERICENTER":91.4025,"MEAN_ANOMALY":268.7304,"EPHEMERIS_TYPE":0,"CLASSIFICATION_TYPE":"U","NORAD_CAT_ID":63692,"ELEMENT_SET_NO":999,"REV_AT_EPOCH":4135,"BSTAR":0.00010457,"MEAN_MOTION_DOT":6.0e-7,"MEAN_MOTION_DDOT":0},{"OBJECT_NAME":"HULIANWANG DIGUI-26","OBJECT_ID":"2025-086G","EPOCH":"2026-03-07T03:11:05.827776","MEAN_MOTION":13.24421468,"ECCENTRICITY":0.0001801,"INCLINATION":86.5154,"RA_OF_ASC_NODE":347.5431,"ARG_OF_PERICENTER":96.0864,"MEAN_ANOMALY":264.0475,"EPHEMERIS_TYPE":0,"CLASSIFICATION_TYPE":"U","NORAD_CAT_ID":63693,"ELEMENT_SET_NO":999,"REV_AT_EPOCH":4135,"BSTAR":0.00011143,"MEAN_MOTION_DOT":6.2e-7,"MEAN_MOTION_DDOT":0},{"OBJECT_NAME":"HULIANWANG DIGUI-27","OBJECT_ID":"2025-086H","EPOCH":"2026-03-07T03:54:52.991712","MEAN_MOTION":13.24420361,"ECCENTRICITY":0.0001813,"INCLINATION":86.5115,"RA_OF_ASC_NODE":347.4402,"ARG_OF_PERICENTER":91.143,"MEAN_ANOMALY":268.9912,"EPHEMERIS_TYPE":0,"CLASSIFICATION_TYPE":"U","NORAD_CAT_ID":63694,"ELEMENT_SET_NO":999,"REV_AT_EPOCH":4135,"BSTAR":0.000134,"MEAN_MOTION_DOT":7.2e-7,"MEAN_MOTION_DDOT":0},{"OBJECT_NAME":"HULIANWANG DIGUI-28","OBJECT_ID":"2025-086J","EPOCH":"2026-03-07T04:16:31.632960","MEAN_MOTION":13.24421639,"ECCENTRICITY":0.0001817,"INCLINATION":86.5079,"RA_OF_ASC_NODE":347.339,"ARG_OF_PERICENTER":91.1426,"MEAN_ANOMALY":268.9917,"EPHEMERIS_TYPE":0,"CLASSIFICATION_TYPE":"U","NORAD_CAT_ID":63695,"ELEMENT_SET_NO":999,"REV_AT_EPOCH":4135,"BSTAR":0.00017718,"MEAN_MOTION_DOT":9.1e-7,"MEAN_MOTION_DDOT":0},{"OBJECT_NAME":"HULIANWANG DIGUI-29","OBJECT_ID":"2025-086K","EPOCH":"2026-03-07T04:05:45.817152","MEAN_MOTION":13.24420557,"ECCENTRICITY":0.00017,"INCLINATION":86.5107,"RA_OF_ASC_NODE":347.4221,"ARG_OF_PERICENTER":91.9545,"MEAN_ANOMALY":268.1784,"EPHEMERIS_TYPE":0,"CLASSIFICATION_TYPE":"U","NORAD_CAT_ID":63696,"ELEMENT_SET_NO":999,"REV_AT_EPOCH":4135,"BSTAR":0.00018528,"MEAN_MOTION_DOT":9.4e-7,"MEAN_MOTION_DDOT":0},{"OBJECT_NAME":"HULIANWANG DIGUI-30","OBJECT_ID":"2025-121A","EPOCH":"2026-03-07T04:16:22.130688","MEAN_MOTION":13.24423453,"ECCENTRICITY":0.0001985,"INCLINATION":86.4952,"RA_OF_ASC_NODE":47.9719,"ARG_OF_PERICENTER":77.7018,"MEAN_ANOMALY":282.4338,"EPHEMERIS_TYPE":0,"CLASSIFICATION_TYPE":"U","NORAD_CAT_ID":64283,"ELEMENT_SET_NO":999,"REV_AT_EPOCH":3665,"BSTAR":4.2636e-5,"MEAN_MOTION_DOT":3.3e-7,"MEAN_MOTION_DDOT":0},{"OBJECT_NAME":"HULIANWANG DIGUI-31","OBJECT_ID":"2025-121B","EPOCH":"2026-03-07T02:17:01.758336","MEAN_MOTION":13.24419638,"ECCENTRICITY":0.0002009,"INCLINATION":86.4972,"RA_OF_ASC_NODE":48.0508,"ARG_OF_PERICENTER":78.017,"MEAN_ANOMALY":282.1189,"EPHEMERIS_TYPE":0,"CLASSIFICATION_TYPE":"U","NORAD_CAT_ID":64284,"ELEMENT_SET_NO":999,"REV_AT_EPOCH":3664,"BSTAR":1.0263e-6,"MEAN_MOTION_DOT":1.5e-7,"MEAN_MOTION_DDOT":0},{"OBJECT_NAME":"HULIANWANG DIGUI-32","OBJECT_ID":"2025-121C","EPOCH":"2026-03-07T02:05:37.605120","MEAN_MOTION":13.24425379,"ECCENTRICITY":0.0002007,"INCLINATION":86.4914,"RA_OF_ASC_NODE":47.8819,"ARG_OF_PERICENTER":80.0511,"MEAN_ANOMALY":280.085,"EPHEMERIS_TYPE":0,"CLASSIFICATION_TYPE":"U","NORAD_CAT_ID":64285,"ELEMENT_SET_NO":999,"REV_AT_EPOCH":3664,"BSTAR":2.8414e-5,"MEAN_MOTION_DOT":2.7e-7,"MEAN_MOTION_DDOT":0}]
