HULIANWANG DIGUI-17     
1 62977U 25030G   26066.01631727 -.00000091  00000+0  72233-4 0  9999
2 62977  50.0046 242.0144 0000754 162.9435 197.1463 13.29338283 52270
HULIANWANG DIGUI-18     
1 62978U 25030H   26066.15830156 -.00000090  00000+0  74104-4 0  9990
2 62978  50.0051 241.4419 0000782 164.6554 195.4342 13.29338372 52295
HULIANWANG DIGUI-19     
1 62979U 25030J   26066.04115050 -.00000099  00000+0  54753-4 0  9995
2 62979  50.0036 242.1096 0000811 158.3462 201.7445 13.29341511 52271
HULIANWANG DIGUI-20     
1 63687U 25086A   26066.18576958  .00000090  00000+0  17515-3 0  9990
2 63687  86.5125 347.4809 0001776  91.5794 268.5543 13.24420324 41373
HULIANWANG DIGUI-21     
1 63688U 25086B   26066.11771189  .00000082  00000+0  15701-3 0  9993
2 63688  86.5153 347.5335 0001670  94.6466 265.4858 13.24421902 41359
HULIANWANG DIGUI-22     
1 63689U 25086C   26066.12527622  .00000071  00000+0  13094-3 0  9997
2 63689  86.5118 347.4335 0001841  91.5843 268.5502 13.24421652 41357
HULIANWANG DIGUI-23     
1 63690U 25086D   26066.14033287  .00000056  00000+0  97167-4 0  9997
2 63690  86.5160 347.5657 0001764  87.9854 272.1482 13.24422446 41359
HULIANWANG DIGUI-24     
1 63691U 25086E   26066.14794767  .00000056  00000+0  97044-4 0  9999
2 63691  86.5167 347.5899 0001812  92.3245 267.8096 13.24420566 41356
HULIANWANG DIGUI-25     
1 63692U 25086F   26066.15547754  .00000060  00000+0  10457-3 0  9990
2 63692  86.5105 347.4082 0001704  91.4025 268.7304 13.24421974 41354
HULIANWANG DIGUI-26     
1 63693U 25086G   26066.13270634  .00000062  00000+0  11143-3 0  9994
2 63693  86.5154 347.5431 0001801  96.0864 264.0475 13.24421468 41354
HULIANWANG DIGUI-27     
1 63694U 25086H   26066.16311333  .00000072  00000+0  13400-3 0  9999
2 63694  86.5115 347.4402 0001813  91.1430 268.9912 13.24420361 41357
HULIANWANG DIGUI-28     
1 63695U 25086J   26066.17814390  .00000091  00000+0  17718-3 0  9999
2 63695  86.5079 347.3390 0001817  91.1426 268.9917 13.24421639 41355
HULIANWANG DIGUI-29     
1 63696U 25086K   26066.17066918  .00000094  00000+0  18528-3 0  9998
2 63696  86.5107 347.4221 0001700  91.9545 268.1784 13.24420557 41355
HULIANWANG DIGUI-30     
1 64283U 25121A   26066.17803392  .00000033  00000+0  42636-4 0  9997
2 64283  86.4952  47.9719 0001985  77.7018 282.4338 13.24423453 36650
HULIANWANG DIGUI-31     
1 64284U 25121B   26066.09515924  .00000015  00000+0  10263-5 0  9992
2 64284  86.4972  48.0508 0002009  78.0170 282.1189 13.24419638 36642
HULIANWANG DIGUI-32     
1 64285U 25121C   26066.08724080  .00000027  00000+0  28414-4 0  9996
2 64285  86.4914  47.8819 0002007  80.0511 280.0850 13.24425379 36642
